[{"OBJECT_ID":"2011-056A","OBJECT_NAME":"INTELSAT 18","NORAD_CAT_ID":"37834","OBJECT_TYPE":"PAYLOAD","PERIOD":"1436.119","INCLINATION":"0.0196","APOGEE":"35794.352","PERIGEE":"35779.729","ECCENTRICITY":"0.0001734","MEAN_MOTION":"1.00270201","TLE_LINE1":"1 37834U 11056A   16239.54617060  .00000023  00000-0  00000+0 0  9992","TLE_LINE2":"2 37834   0.0196 128.4242 0001734  40.8872 182.5128  1.00270201 17930","LAUNCH_DATE":"2011-10-05","LAUNCH_SITE":"TYURATAM MISSILE AND SPACE COMPLEX","OWNER":"INTERNATIONAL TELECOMMUNICATIONS SATELLITE ORGANIZATION (INTELSAT)","ORBIT_TYPE":"Geosynchronous","OPERATIONAL_STATUS":"Operational","satInfo":{"lng":22.16100867880544,"lat":-1.8931570750432822,"elevation":-10.421132737522996,"azimuth":292.8389913211945,"range":42835.957817592585,"height":35774.21886084412,"velocity":3.0748773985830664},"x":135,"y":-331,"dx":28,"dy":-12},{"OBJECT_ID":"2011-057A","OBJECT_NAME":"EUTE 16A (EUTE W3C)","NORAD_CAT_ID":"37836","OBJECT_TYPE":"PAYLOAD","PERIOD":"1436.084","INCLINATION":"0.0657","APOGEE":"35803.559","PERIGEE":"35769.153","ECCENTRICITY":"0.000408","MEAN_MOTION":"1.00272643","TLE_LINE1":"1 37836U 11057A   16239.10396720  .00000076  00000-0  00000+0 0  9992","TLE_LINE2":"2 37836   0.0657 359.5914 0004080 157.0625 231.5346  1.00272643 17873","LAUNCH_DATE":"2011-10-07","LAUNCH_SITE":"Xichang Space Center, China","OWNER":"EUROPEAN TELECOMMUNICATIONS SATELLITE ORGANIZATION (EUTELSAT)","ORBIT_TYPE":"Geosynchronous","OPERATIONAL_STATUS":"Operational","satInfo":{"lng":22.758356981095343,"lat":0.03432404338186623,"elevation":-8.53942572788727,"azimuth":292.24164301890465,"range":42641.85377827841,"height":35790.99334678177,"velocity":3.073946103699618},"x":138,"y":-330,"dx":28,"dy":-12},{"OBJECT_ID":"2011-059A","OBJECT_NAME":"VIASAT 1","NORAD_CAT_ID":"37843","OBJECT_TYPE":"PAYLOAD","PERIOD":"1436.118","INCLINATION":"0.0281","APOGEE":"35799.777","PERIGEE":"35774.250","ECCENTRICITY":"0.0003027","MEAN_MOTION":"1.00270298","TLE_LINE1":"1 37843U 11059A   16238.68380462 -.00000245  00000-0  10000-3 0  9994","TLE_LINE2":"2 37843   0.0281  94.0152 0003027  51.9861 319.5247  1.00270298 18347","LAUNCH_DATE":"2011-10-19","LAUNCH_SITE":"TYURATAM MISSILE AND SPACE COMPLEX","OWNER":"UNITED STATES OF AMERICA","ORBIT_TYPE":"Geosynchronous","OPERATIONAL_STATUS":"Operational","satInfo":{"lng":-106.32493647452642,"lat":0.5876407245832801,"elevation":-8.001207905527277,"azimuth":61.32493647452637,"range":42567.98156805716,"height":35777.66593240336,"velocity":3.0751317006118444},"x":-343,"y":101,"dx":-9,"dy":30},{"OBJECT_ID":"2011-069A","OBJECT_NAME":"ASIASAT 7","NORAD_CAT_ID":"37933","OBJECT_TYPE":"PAYLOAD","PERIOD":"1436.101","INCLINATION":"0.0152","APOGEE":"35790.360","PERIGEE":"35782.998","ECCENTRICITY":"8.73e-05","MEAN_MOTION":"1.00271491","TLE_LINE1":"1 37933U 11069A   16238.89641199 -.00000362 +00000-0 +00000-0 0  9991","TLE_LINE2":"2 37933 000.0152 177.1136 0000873 312.4951 273.1772 01.00271491008938","LAUNCH_DATE":"2011-11-25","LAUNCH_SITE":"TYURATAM MISSILE AND SPACE COMPLEX","OWNER":"ASIASAT CORP","ORBIT_TYPE":"Geosynchronous","OPERATIONAL_STATUS":"Operational","satInfo":{"lng":48.70886611222861,"lat":-0.22273612435765067,"elevation":-8.789329567738369,"azimuth":266.29113388777137,"range":42675.608760250536,"height":35796.644279922824,"velocity":3.0742834409475446},"x":269,"y":-236,"dx":20,"dy":-23},{"OBJECT_ID":"2011-074A","OBJECT_NAME":"AMOS 5","NORAD_CAT_ID":"37950","OBJECT_TYPE":"PAYLOAD","PERIOD":"1434.548","INCLINATION":"0.5664","APOGEE":"35766.807","PERIGEE":"35745.773","ECCENTRICITY":"0.0002496","MEAN_MOTION":"1.0037999","TLE_LINE1":"1 37950U 11074A   16239.11472117 -.00000148  00000-0  00000+0 0  9995","TLE_LINE2":"2 37950   0.5664  91.2664 0002496  52.0137 308.6800  1.00379990 17353","LAUNCH_DATE":"2011-12-11","LAUNCH_SITE":"TYURATAM MISSILE AND SPACE COMPLEX","OWNER":"ISRAEL","ORBIT_TYPE":"Geosynchronous","OPERATIONAL_STATUS":"Nonoperational","satInfo":{"lng":113.43624651575385,"lat":1.3669619303152005,"elevation":-7.241351168951797,"azimuth":201.56375348424615,"range":42466.47745112125,"height":35761.60765568935,"velocity":3.0757935904237246},"x":328,"y":142,"dx":-12,"dy":-28},{"OBJECT_ID":"2011-074B","OBJECT_NAME":"LUCH 5A","NORAD_CAT_ID":"37951","OBJECT_TYPE":"PAYLOAD","PERIOD":"1436.059","INCLINATION":"1.6648","APOGEE":"35799.747","PERIGEE":"35771.986","ECCENTRICITY":"0.0003292","MEAN_MOTION":"1.00274389","TLE_LINE1":"1 37951U 11074B   16239.51323774 -.00000074  00000-0  00000+0 0  9992","TLE_LINE2":"2 37951   1.6648 208.2416 0003292 298.9651 179.7973  1.00274389 17275","LAUNCH_DATE":"2011-12-11","LAUNCH_SITE":"TYURATAM MISSILE AND SPACE COMPLEX","OWNER":"COMMONWEALTH OF INDEPENDENT STATES","ORBIT_TYPE":"Geosynchronous","OPERATIONAL_STATUS":"Operational","satInfo":{"lng":83.45041237057279,"lat":-0.6157689456060814,"elevation":-9.181820539250365,"azimuth":231.5495876294272,"range":42674.17962905264,"height":35751.68654407789,"velocity":3.0759262265677383},"x":355,"y":-41,"dx":4,"dy":-31},{"OBJECT_ID":"2011-077A","OBJECT_NAME":"NIGCOMSAT 1R","NORAD_CAT_ID":"38014","OBJECT_TYPE":"PAYLOAD","PERIOD":"1436.090","INCLINATION":"0.0191","APOGEE":"35801.118","PERIGEE":"35771.839","ECCENTRICITY":"0.0003472","MEAN_MOTION":"1.00272205","TLE_LINE1":"1 38014U 11077A   16238.78936252 +.00000117 +00000-0 +00000-0 0  9993","TLE_LINE2":"2 38014 000.0191 277.6749 0003472 344.4632 038.9808 01.00272205017028","LAUNCH_DATE":"2011-12-19","LAUNCH_SITE":"Xichang Space Center, China","OWNER":"NIGERIA","ORBIT_TYPE":"Geosynchronous","OPERATIONAL_STATUS":"Operational","satInfo":{"lng":100.11389402005715,"lat":-0.3332233734962918,"elevation":-8.898752481804248,"azimuth":214.88610597994284,"range":42679.91985798817,"height":35788.76705734576,"velocity":3.074084921757128},"x":352,"y":63,"dx":-5,"dy":-30},{"OBJECT_ID":"2012-002A","OBJECT_NAME":"FENGYUN 2F","NORAD_CAT_ID":"38049","OBJECT_TYPE":"PAYLOAD","PERIOD":"1436.005","INCLINATION":"1.1178","APOGEE":"35795.451","PERIGEE":"35774.150","ECCENTRICITY":"0.0002526","MEAN_MOTION":"1.00278192","TLE_LINE1":"1 38049U 12002A   16238.79284267 -.00000384  00000-0  00000+0 0  9999","TLE_LINE2":"2 38049   1.1178  76.5533 0002526 203.7367  91.6195  1.00278192 16969","LAUNCH_DATE":"2012-01-13","LAUNCH_SITE":"Xichang Space Center, China","OWNER":"PEOPLES REPUBLIC OF CHINA","ORBIT_TYPE":"Geosynchronous","OPERATIONAL_STATUS":"Operational","satInfo":{"lng":55.25428993601934,"lat":-0.8777118344665134,"elevation":-9.426023578096657,"azimuth":259.74571006398065,"range":42758.21794259588,"height":35807.69903461727,"velocity":3.0738156126994376},"x":294,"y":-204,"dx":18,"dy":-25},{"OBJECT_ID":"2012-002C","OBJECT_NAME":"FENGYUN 2F AKM","NORAD_CAT_ID":"38072","OBJECT_TYPE":"ROCKET BODY","PERIOD":"1448.717","INCLINATION":"1.0965","APOGEE":"36285.313","PERIGEE":"35781.220","ECCENTRICITY":"0.0059429","MEAN_MOTION":"0.99398268","TLE_LINE1":"1 38072U 12002C   16239.41160662 -.00000197  00000-0  00000+0 0  9999","TLE_LINE2":"2 38072   1.0965  75.2120 0059429 128.1438  92.5013  0.99398268 16614","LAUNCH_DATE":"2012-01-13","LAUNCH_SITE":"Xichang Space Center, China","OWNER":"PEOPLES REPUBLIC OF CHINA","ORBIT_TYPE":"Geosynchronous","OPERATIONAL_STATUS":"N/A, derelict rocket body","satInfo":{"lng":138.21710560312084,"lat":3.106586829667009,"elevation":-5.471786800644535,"azimuth":176.78289439687916,"range":42571.736839679856,"height":36061.91738583967,"velocity":3.0636692906273266},"x":240,"y":269,"dx":-23,"dy":-20},{"OBJECT_ID":"2012-007A","OBJECT_NAME":"SES 4","NORAD_CAT_ID":"38087","OBJECT_TYPE":"PAYLOAD","PERIOD":"1436.085","INCLINATION":"0.0189","APOGEE":"35796.472","PERIGEE":"35776.267","ECCENTRICITY":"0.0002396","MEAN_MOTION":"1.00272595","TLE_LINE1":"1 38087U 12007A   16239.38510905 -.00000197  00000-0  00000+0 0  9995","TLE_LINE2":"2 38087   0.0189 353.3740 0002396 168.6947 289.6247  1.00272595 16570","LAUNCH_DATE":"2012-02-14","LAUNCH_SITE":"TYURATAM MISSILE AND SPACE COMPLEX","OWNER":"SOCIÉTÉ EUROPÉENNE DES SATELLITES","ORBIT_TYPE":"Geosynchronous","OPERATIONAL_STATUS":"Operational","satInfo":{"lng":-80.94067376319988,"lat":-0.36483874236664804,"elevation":-8.936135644857703,"azimuth":35.94067376319984,"range":42651.112608429365,"height":35756.1338182755,"velocity":3.0758403314939624},"x":-353,"y":-56,"dx":5,"dy":30},{"OBJECT_ID":"2012-008A","OBJECT_NAME":"BEIDOU G5","NORAD_CAT_ID":"38091","OBJECT_TYPE":"PAYLOAD","PERIOD":"1436.096","INCLINATION":"1.7378","APOGEE":"35798.963","PERIGEE":"35774.196","ECCENTRICITY":"0.0002937","MEAN_MOTION":"1.00271845","TLE_LINE1":"1 38091U 12008A   16239.11875233  .00000029  00000-0  00000+0 0  9993","TLE_LINE2":"2 38091   1.7378  50.0749 0002937 172.6257 213.4979  1.00271845 16566","LAUNCH_DATE":"2012-02-24","LAUNCH_SITE":"Xichang Space Center, China","OWNER":"PEOPLES REPUBLIC OF CHINA","ORBIT_TYPE":"Geosynchronous","OPERATIONAL_STATUS":"Operational","satInfo":{"lng":91.62309279715195,"lat":2.554418038671623,"elevation":-6.068377846193022,"azimuth":223.37690720284806,"range":42371.511828902294,"height":35797.80964590983,"velocity":3.073857393790263},"x":358,"y":10,"dx":-1,"dy":-31},{"OBJECT_ID":"2012-011A","OBJECT_NAME":"INTELSAT 22","NORAD_CAT_ID":"38098","OBJECT_TYPE":"PAYLOAD","PERIOD":"1436.137","INCLINATION":"0.0343","APOGEE":"35795.318","PERIGEE":"35779.464","ECCENTRICITY":"0.000188","MEAN_MOTION":"1.0026895","TLE_LINE1":"1 38098U 12011A   16238.11062819  .00000000  00000-0  10000-3 0  9995","TLE_LINE2":"2 38098   0.0343  65.6446 0001880 103.1448 276.9509  1.00268950 16128","LAUNCH_DATE":"2012-03-25","LAUNCH_SITE":"TYURATAM MISSILE AND SPACE COMPLEX","OWNER":"INTERNATIONAL TELECOMMUNICATIONS SATELLITE ORGANIZATION (INTELSAT)","ORBIT_TYPE":"Geosynchronous","OPERATIONAL_STATUS":"Operational","satInfo":{"lng":78.63365278833884,"lat":0.6848003342949655,"elevation":-7.903706381639459,"azimuth":236.36634721166118,"range":42569.346684606615,"height":35789.83393775367,"velocity":3.0744280099650156},"x":351,"y":-71,"dx":6,"dy":-30}]